CCSDS_OMM_VERS = 2.0
CREATION_DATE  = 
ORIGINATOR     = 

OBJECT_NAME    = LVM3 R/B
OBJECT_ID      = 2025-249A
CENTER_NAME    = EARTH
REF_FRAME      = TEME
TIME_SYSTEM    = UTC
MEAN_ELEMENT_THEORY = SGP/SGP4

EPOCH          = 2025-12-01T08:08:40.653024
MEAN_MOTION    = 3.14269232
ECCENTRICITY   = .6668793
INCLINATION    = 21.3490
RA_OF_ASC_NODE = 143.9958
ARG_OF_PERICENTER = 208.0487
MEAN_ANOMALY   = 89.1049

EPHEMERIS_TYPE = 0
CLASSIFICATION_TYPE = U
NORAD_CAT_ID   = 66310
ELEMENT_SET_NO = 999
REV_AT_EPOCH   = 92
BSTAR          = .12816E-2
MEAN_MOTION_DOT = .47432E-3
MEAN_MOTION_DDOT = -.36454E-6

CCSDS_OMM_VERS = 2.0
CREATION_DATE  = 
ORIGINATOR     = 

OBJECT_NAME    = CMS-03 (GSAT-7R)
OBJECT_ID      = 2025-249B
CENTER_NAME    = EARTH
REF_FRAME      = TEME
TIME_SYSTEM    = UTC
MEAN_ELEMENT_THEORY = SGP/SGP4

EPOCH          = 2025-12-01T18:30:38.617056
MEAN_MOTION    = 1.00268692
ECCENTRICITY   = .0004036
INCLINATION    = 0.1686
RA_OF_ASC_NODE = 272.0212
ARG_OF_PERICENTER = 195.9714
MEAN_ANOMALY   = 334.0392

EPHEMERIS_TYPE = 0
CLASSIFICATION_TYPE = U
NORAD_CAT_ID   = 66311
ELEMENT_SET_NO = 999
REV_AT_EPOCH   = 37
BSTAR          = 0
MEAN_MOTION_DOT = -.236E-5
MEAN_MOTION_DDOT = 0

CCSDS_OMM_VERS = 2.0
CREATION_DATE  = 
ORIGINATOR     = 

OBJECT_NAME    = YAOGAN-46
OBJECT_ID      = 2025-250A
CENTER_NAME    = EARTH
REF_FRAME      = TEME
TIME_SYSTEM    = UTC
MEAN_ELEMENT_THEORY = SGP/SGP4

EPOCH          = 2025-11-23T01:44:02.775840
MEAN_MOTION    = 5.35115916
ECCENTRICITY   = .00492374
INCLINATION    = 20.0335
RA_OF_ASC_NODE = 104.8243
ARG_OF_PERICENTER = 135.6954
MEAN_ANOMALY   = 224.7061

EPHEMERIS_TYPE = 0
CLASSIFICATION_TYPE = U
NORAD_CAT_ID   = 66313
ELEMENT_SET_NO = 999
REV_AT_EPOCH   = 114
BSTAR          = 0
MEAN_MOTION_DOT = -.7E-7
MEAN_MOTION_DDOT = 0

CCSDS_OMM_VERS = 2.0
CREATION_DATE  = 
ORIGINATOR     = 

OBJECT_NAME    = SENTINEL-1D
OBJECT_ID      = 2025-251A
CENTER_NAME    = EARTH
REF_FRAME      = TEME
TIME_SYSTEM    = UTC
MEAN_ELEMENT_THEORY = SGP/SGP4

EPOCH          = 2025-12-01T18:06:01.509696
MEAN_MOTION    = 14.59909281
ECCENTRICITY   = .000254
INCLINATION    = 98.1925
RA_OF_ASC_NODE = 340.9287
ARG_OF_PERICENTER = 157.3618
MEAN_ANOMALY   = 202.7695

EPHEMERIS_TYPE = 0
CLASSIFICATION_TYPE = U
NORAD_CAT_ID   = 66315
ELEMENT_SET_NO = 999
REV_AT_EPOCH   = 393
BSTAR          = .60223E-4
MEAN_MOTION_DOT = .242E-5
MEAN_MOTION_DDOT = 0

CCSDS_OMM_VERS = 2.0
CREATION_DATE  = 
ORIGINATOR     = 

OBJECT_NAME    = QPS-SAR-14 (YACHIHOKO-I)
OBJECT_ID      = 2025-252A
CENTER_NAME    = EARTH
REF_FRAME      = TEME
TIME_SYSTEM    = UTC
MEAN_ELEMENT_THEORY = SGP/SGP4

EPOCH          = 2025-12-01T17:34:00.696864
MEAN_MOTION    = 14.97512808
ECCENTRICITY   = .0006941
INCLINATION    = 42.0031
RA_OF_ASC_NODE = 135.7309
ARG_OF_PERICENTER = 73.6680
MEAN_ANOMALY   = 286.4907

EPHEMERIS_TYPE = 0
CLASSIFICATION_TYPE = U
NORAD_CAT_ID   = 66316
ELEMENT_SET_NO = 999
REV_AT_EPOCH   = 388
BSTAR          = .52966E-3
MEAN_MOTION_DOT = .6104E-4
MEAN_MOTION_DDOT = 0

CCSDS_OMM_VERS = 2.0
CREATION_DATE  = 
ORIGINATOR     = 

OBJECT_NAME    = ELECTRON R/B
OBJECT_ID      = 2025-252B
CENTER_NAME    = EARTH
REF_FRAME      = TEME
TIME_SYSTEM    = UTC
MEAN_ELEMENT_THEORY = SGP/SGP4

EPOCH          = 2025-11-29T21:07:58.211904
MEAN_MOTION    = 15.94243293
ECCENTRICITY   = .01246685
INCLINATION    = 41.9889
RA_OF_ASC_NODE = 130.1303
ARG_OF_PERICENTER = 46.1701
MEAN_ANOMALY   = 314.9386

EPHEMERIS_TYPE = 0
CLASSIFICATION_TYPE = U
NORAD_CAT_ID   = 66317
ELEMENT_SET_NO = 999
REV_AT_EPOCH   = 378
BSTAR          = .19142518E-2
MEAN_MOTION_DOT = .1669799E-1
MEAN_MOTION_DDOT = .7910989E-5

CCSDS_OMM_VERS = 2.0
CREATION_DATE  = 
ORIGINATOR     = 

OBJECT_NAME    = STARLINK-35442
OBJECT_ID      = 2025-253A
CENTER_NAME    = EARTH
REF_FRAME      = TEME
TIME_SYSTEM    = UTC
MEAN_ELEMENT_THEORY = SGP/SGP4

EPOCH          = 2025-12-01T20:00:01.999008
MEAN_MOTION    = 15.40688878
ECCENTRICITY   = .0001499
INCLINATION    = 43.0008
RA_OF_ASC_NODE = 48.7238
ARG_OF_PERICENTER = 268.8576
MEAN_ANOMALY   = 227.3277

EPHEMERIS_TYPE = 0
CLASSIFICATION_TYPE = U
NORAD_CAT_ID   = 66319
ELEMENT_SET_NO = 999
REV_AT_EPOCH   = 527
BSTAR          = .76419E-3
MEAN_MOTION_DOT = .31739E-3
MEAN_MOTION_DDOT = 0

CCSDS_OMM_VERS = 2.0
CREATION_DATE  = 
ORIGINATOR     = 

OBJECT_NAME    = STARLINK-34616
OBJECT_ID      = 2025-253B
CENTER_NAME    = EARTH
REF_FRAME      = TEME
TIME_SYSTEM    = UTC
MEAN_ELEMENT_THEORY = SGP/SGP4

EPOCH          = 2025-12-01T12:52:41.675808
MEAN_MOTION    = 15.50595365
ECCENTRICITY   = .000203
INCLINATION    = 43.0003
RA_OF_ASC_NODE = 50.2572
ARG_OF_PERICENTER = 284.6496
MEAN_ANOMALY   = 75.4139

EPHEMERIS_TYPE = 0
CLASSIFICATION_TYPE = U
NORAD_CAT_ID   = 66320
ELEMENT_SET_NO = 999
REV_AT_EPOCH   = 527
BSTAR          = .16322E-2
MEAN_MOTION_DOT = .96659E-3
MEAN_MOTION_DDOT = 0

CCSDS_OMM_VERS = 2.0
CREATION_DATE  = 
ORIGINATOR     = 

OBJECT_NAME    = STARLINK-34615
OBJECT_ID      = 2025-253C
CENTER_NAME    = EARTH
REF_FRAME      = TEME
TIME_SYSTEM    = UTC
MEAN_ELEMENT_THEORY = SGP/SGP4

EPOCH          = 2025-12-01T13:21:43.206048
MEAN_MOTION    = 15.63263158
ECCENTRICITY   = .0002377
INCLINATION    = 42.9996
RA_OF_ASC_NODE = 49.5325
ARG_OF_PERICENTER = 5.4675
MEAN_ANOMALY   = 354.6216

EPHEMERIS_TYPE = 0
CLASSIFICATION_TYPE = U
NORAD_CAT_ID   = 66321
ELEMENT_SET_NO = 999
REV_AT_EPOCH   = 520
BSTAR          = .16579E-2
MEAN_MOTION_DOT = .159038E-2
MEAN_MOTION_DDOT = 0

CCSDS_OMM_VERS = 2.0
CREATION_DATE  = 
ORIGINATOR     = 

OBJECT_NAME    = STARLINK-35292
OBJECT_ID      = 2025-253D
CENTER_NAME    = EARTH
REF_FRAME      = TEME
TIME_SYSTEM    = UTC
MEAN_ELEMENT_THEORY = SGP/SGP4

EPOCH          = 2025-12-01T06:00:02.000160
MEAN_MOTION    = 15.40900734
ECCENTRICITY   = .00022023
INCLINATION    = 43.0008
RA_OF_ASC_NODE = 51.9925
ARG_OF_PERICENTER = 282.3743
MEAN_ANOMALY   = 251.7766

EPHEMERIS_TYPE = 0
CLASSIFICATION_TYPE = U
NORAD_CAT_ID   = 66322
ELEMENT_SET_NO = 999
REV_AT_EPOCH   = 508
BSTAR          = -.10395651E-1
MEAN_MOTION_DOT = -.414603E-2
MEAN_MOTION_DDOT = 0

CCSDS_OMM_VERS = 2.0
CREATION_DATE  = 
ORIGINATOR     = 

OBJECT_NAME    = STARLINK-35309
OBJECT_ID      = 2025-253E
CENTER_NAME    = EARTH
REF_FRAME      = TEME
TIME_SYSTEM    = UTC
MEAN_ELEMENT_THEORY = SGP/SGP4

EPOCH          = 2025-12-01T14:21:29.714112
MEAN_MOTION    = 15.50587461
ECCENTRICITY   = .0002132
INCLINATION    = 43.0003
RA_OF_ASC_NODE = 49.8592
ARG_OF_PERICENTER = 250.9750
MEAN_ANOMALY   = 109.0879

EPHEMERIS_TYPE = 0
CLASSIFICATION_TYPE = U
NORAD_CAT_ID   = 66323
ELEMENT_SET_NO = 999
REV_AT_EPOCH   = 520
BSTAR          = .16871E-2
MEAN_MOTION_DOT = .99939E-3
MEAN_MOTION_DDOT = 0

CCSDS_OMM_VERS = 2.0
CREATION_DATE  = 
ORIGINATOR     = 

OBJECT_NAME    = STARLINK-35506
OBJECT_ID      = 2025-253F
CENTER_NAME    = EARTH
REF_FRAME      = TEME
TIME_SYSTEM    = UTC
MEAN_ELEMENT_THEORY = SGP/SGP4

EPOCH          = 2025-12-01T05:06:55.861056
MEAN_MOTION    = 15.50651952
ECCENTRICITY   = .0001459
INCLINATION    = 42.9999
RA_OF_ASC_NODE = 52.1305
ARG_OF_PERICENTER = 261.0822
MEAN_ANOMALY   = 98.9873

EPHEMERIS_TYPE = 0
CLASSIFICATION_TYPE = U
NORAD_CAT_ID   = 66324
ELEMENT_SET_NO = 999
REV_AT_EPOCH   = 514
BSTAR          = .27895E-2
MEAN_MOTION_DOT = .167285E-2
MEAN_MOTION_DDOT = 0

